{"type": "FeatureCollection", "features": [ {"type": "Feature", "properties": {"norad_id": 34077, "name": "IRIDIUM 33 DEB", "group": "iridium-33-debris", "lat": -4.7124260622652105, "lon": -128.24855986020611, "alt_km": 687.2170225402197, "timestamp": "2025-12-12T20:43:07.420137+00:00", "meta": {"OBJECT_NAME": "IRIDIUM 33 DEB", "OBJECT_ID": "1997-051CL", "EPOCH": "2025-12-12T05:23:02.919840", "MEAN_MOTION": 14.6483143, "ECCENTRICITY": 0.00102947, "INCLINATION": 86.386, "RA_OF_ASC_NODE": 51.7343, "ARG_OF_PERICENTER": 41.6273, "MEAN_ANOMALY": 15.6908, "EPHEMERIS_TYPE": 0, "CLASSIFICATION_TYPE": "U", "NORAD_CAT_ID": 34077, "ELEMENT_SET_NO": 999, "REV_AT_EPOCH": 88325, "BSTAR": 0.0022376542, "MEAN_MOTION_DOT": 0.00011982, "MEAN_MOTION_DDOT": 0}, "tle": {"line1": "1 34077U 97051CL  25346.22433935  .00011982  00000+0  22377-2 0  9997", "line2": "2 34077  86.3860  51.7343 0010294  41.6273  15.6908 14.64831430883255"}}, "geometry": {"type": "Point", "coordinates": [-128.24855986020611, -4.7124260622652105]}}, {"type": "Feature", "properties": {"norad_id": 34079, "name": "IRIDIUM 33 DEB", "group": "iridium-33-debris", "lat": -4.683274654625673, "lon": -171.09661030127515, "alt_km": 625.8565197470562, "timestamp": "2025-12-12T20:43:07.420149+00:00", "meta": {"OBJECT_NAME": "IRIDIUM 33 DEB", "OBJECT_ID": "1997-051CN", "EPOCH": "2025-12-12T02:19:21.891360", "MEAN_MOTION": 14.83502874, "ECCENTRICITY": 0.00056447, "INCLINATION": 86.3781, "RA_OF_ASC_NODE": 8.9545, "ARG_OF_PERICENTER": 10.4364, "MEAN_ANOMALY": 43.223, "EPHEMERIS_TYPE": 0, "CLASSIFICATION_TYPE": "U", "NORAD_CAT_ID": 34079, "ELEMENT_SET_NO": 999, "REV_AT_EPOCH": 88968, "BSTAR": 0.0022555741, "MEAN_MOTION_DOT": 0.00018607, "MEAN_MOTION_DDOT": 0}, "tle": {"line1": "1 34079U 97051CN  25346.09678115  .00018607  00000+0  22556-2 0  9995", "line2": "2 34079  86.3781   8.9545 0005644  10.4364  43.2230 14.83502874889681"}}, "geometry": {"type": "Point", "coordinates": [-171.09661030127515, -4.683274654625673]}}, {"type": "Feature", "properties": {"norad_id": 34088, "name": "IRIDIUM 33 DEB", "group": "iridium-33-debris", "lat": -79.94376221909208, "lon": 9.782730441610619, "alt_km": 601.898122477106, "timestamp": "2025-12-12T20:43:07.420159+00:00", "meta": {"OBJECT_NAME": "IRIDIUM 33 DEB", "OBJECT_ID": "1997-051CX", "EPOCH": "2025-12-12T03:36:20.386944", "MEAN_MOTION": 14.91344676, "ECCENTRICITY": 0.00055799, "INCLINATION": 86.3851, "RA_OF_ASC_NODE": 30.9947, "ARG_OF_PERICENTER": 178.9664, "MEAN_ANOMALY": 234.6455, "EPHEMERIS_TYPE": 0, "CLASSIFICATION_TYPE": "U", "NORAD_CAT_ID": 34088, "ELEMENT_SET_NO": 999, "REV_AT_EPOCH": 88733, "BSTAR": 0.0035088901, "MEAN_MOTION_DOT": 0.00035146, "MEAN_MOTION_DDOT": 0}, "tle": {"line1": "1 34088U 97051CX  25346.15023596  .00035146  00000+0  35089-2 0  9991", "line2": "2 34088  86.3851  30.9947 0005579 178.9664 234.6455 14.91344676887338"}}, "geometry": {"type": "Point", "coordinates": [9.782730441610619, -79.94376221909208]}}, {"type": "Feature", "properties": {"norad_id": 34091, "name": "IRIDIUM 33 DEB", "group": "iridium-33-debris", "lat": 78.70466029337629, "lon": -131.90604778865074, "alt_km": 639.3544633384772, "timestamp": "2025-12-12T20:43:07.420169+00:00", "meta": {"OBJECT_NAME": "IRIDIUM 33 DEB", "OBJECT_ID": "1997-051DA", "EPOCH": "2025-12-12T05:40:42.487968", "MEAN_MOTION": 14.81773755, "ECCENTRICITY": 0.00337743, "INCLINATION": 86.3416, "RA_OF_ASC_NODE": 67.0638, "ARG_OF_PERICENTER": 295.1725, "MEAN_ANOMALY": 64.5996, "EPHEMERIS_TYPE": 0, "CLASSIFICATION_TYPE": "U", "NORAD_CAT_ID": 34091, "ELEMENT_SET_NO": 999, "REV_AT_EPOCH": 87859, "BSTAR": 0.007483738, "MEAN_MOTION_DOT": 0.00060085, "MEAN_MOTION_DDOT": 0}, "tle": {"line1": "1 34091U 97051DA  25346.23660287  .00060085  00000+0  74837-2 0  9992", "line2": "2 34091  86.3416  67.0638 0033774 295.1725  64.5996 14.81773755878596"}}, "geometry": {"type": "Point", "coordinates": [-131.90604778865074, 78.70466029337629]}}, {"type": "Feature", "properties": {"norad_id": 34097, "name": "IRIDIUM 33 DEB", "group": "iridium-33-debris", "lat": -32.532327249993166, "lon": -1.0758447245864196, "alt_km": 732.9711083620496, "timestamp": "2025-12-12T20:43:07.420182+00:00", "meta": {"OBJECT_NAME": "IRIDIUM 33 DEB", "OBJECT_ID": "1997-051DG", "EPOCH": "2025-12-12T00:46:57.891936", "MEAN_MOTION": 14.3476745, "ECCENTRICITY": 0.0082672, "INCLINATION": 86.2008, "RA_OF_ASC_NODE": 1.7198, "ARG_OF_PERICENTER": 4.5012, "MEAN_ANOMALY": 355.6908, "EPHEMERIS_TYPE": 0, "CLASSIFICATION_TYPE": "U", "NORAD_CAT_ID": 34097, "ELEMENT_SET_NO": 999, "REV_AT_EPOCH": 87109, "BSTAR": 0.002168, "MEAN_MOTION_DOT": 6.405e-05, "MEAN_MOTION_DDOT": 0}, "tle": {"line1": "1 34097U 97051DG  25346.03261449  .00006405  00000+0  21680-2 0  9997", "line2": "2 34097  86.2008   1.7198 0082672   4.5012 355.6908 14.34767450871094"}}, "geometry": {"type": "Point", "coordinates": [-1.0758447245864196, -32.532327249993166]}}, {"type": "Feature", "properties": {"norad_id": 34145, "name": "IRIDIUM 33 DEB", "group": "iridium-33-debris", "lat": -60.81415503277586, "lon": 159.28347023149658, "alt_km": 791.6660289438851, "timestamp": "2025-12-12T20:43:07.420193+00:00", "meta": {"OBJECT_NAME": "IRIDIUM 33 DEB", "OBJECT_ID": "1997-051DY", "EPOCH": "2025-12-11T23:37:41.599200", "MEAN_MOTION": 14.42279969, "ECCENTRICITY": 0.0055694, "INCLINATION": 86.2122, "RA_OF_ASC_NODE": 332.8629, "ARG_OF_PERICENTER": 96.2305, "MEAN_ANOMALY": 264.5244, "EPHEMERIS_TYPE": 0, "CLASSIFICATION_TYPE": "U", "NORAD_CAT_ID": 34145, "ELEMENT_SET_NO": 999, "REV_AT_EPOCH": 87627, "BSTAR": 0.0017354, "MEAN_MOTION_DOT": 5.852e-05, "MEAN_MOTION_DDOT": 0}, "tle": {"line1": "1 34145U 97051DY  25345.98450925  .00005852  00000+0  17354-2 0  9991", "line2": "2 34145  86.2122 332.8629 0055694  96.2305 264.5244 14.42279969876277"}}, "geometry": {"type": "Point", "coordinates": [159.28347023149658, -60.81415503277586]}}, {"type": "Feature", "properties": {"norad_id": 34146, "name": "IRIDIUM 33 DEB", "group": "iridium-33-debris", "lat": -61.23186321658924, "lon": 176.5443363964884, "alt_km": 719.0190091650866, "timestamp": "2025-12-12T20:43:07.420204+00:00", "meta": {"OBJECT_NAME": "IRIDIUM 33 DEB", "OBJECT_ID": "1997-051DZ", "EPOCH": "2025-12-11T23:59:18.754368", "MEAN_MOTION": 14.49040748, "ECCENTRICITY": 0.0025427, "INCLINATION": 86.284, "RA_OF_ASC_NODE": 350.1275, "ARG_OF_PERICENTER": 224.2485, "MEAN_ANOMALY": 194.0777, "EPHEMERIS_TYPE": 0, "CLASSIFICATION_TYPE": "U", "NORAD_CAT_ID": 34146, "ELEMENT_SET_NO": 999, "REV_AT_EPOCH": 88096, "BSTAR": 0.0014807, "MEAN_MOTION_DOT": 5.661e-05, "MEAN_MOTION_DDOT": 0}, "tle": {"line1": "1 34146U 97051DZ  25345.99952262  .00005661  00000+0  14807-2 0  9992", "line2": "2 34146  86.2840 350.1275 0025427 224.2485 194.0777 14.49040748880965"}}, "geometry": {"type": "Point", "coordinates": [176.5443363964884, -61.23186321658924]}}, {"type": "Feature", "properties": {"norad_id": 34159, "name": "IRIDIUM 33 DEB", "group": "iridium-33-debris", "lat": -48.38685205495191, "lon": 44.068959363952935, "alt_km": 753.4020871743451, "timestamp": "2025-12-12T20:43:07.420217+00:00", "meta": {"OBJECT_NAME": "IRIDIUM 33 DEB", "OBJECT_ID": "1997-051EN", "EPOCH": "2025-12-12T04:14:54.367296", "MEAN_MOTION": 14.38492012, "ECCENTRICITY": 0.0026045, "INCLINATION": 86.351, "RA_OF_ASC_NODE": 48.4813, "ARG_OF_PERICENTER": 289.8308, "MEAN_ANOMALY": 70.0083, "EPHEMERIS_TYPE": 0, "CLASSIFICATION_TYPE": "U", "NORAD_CAT_ID": 34159, "ELEMENT_SET_NO": 999, "REV_AT_EPOCH": 87951, "BSTAR": 0.00065904202, "MEAN_MOTION_DOT": 2.039e-05, "MEAN_MOTION_DDOT": 0}, "tle": {"line1": "1 34159U 97051EN  25346.17701814  .00002039  00000+0  65904-3 0  9993", "line2": "2 34159  86.3510  48.4813 0026045 289.8308  70.0083 14.38492012879512"}}, "geometry": {"type": "Point", "coordinates": [44.068959363952935, -48.38685205495191]}}, {"type": "Feature", "properties": {"norad_id": 34350, "name": "IRIDIUM 33 DEB", "group": "iridium-33-debris", "lat": -16.912604505695263, "lon": 1.6347528171849057, "alt_km": 759.9887596535309, "timestamp": "2025-12-12T20:43:07.420228+00:00", "meta": {"OBJECT_NAME": "IRIDIUM 33 DEB", "OBJECT_ID": "1997-051ES", "EPOCH": "2025-12-12T07:35:44.115648", "MEAN_MOTION": 14.45385544, "ECCENTRICITY": 0.00227905, "INCLINATION": 86.3276, "RA_OF_ASC_NODE": 2.9909, "ARG_OF_PERICENTER": 136.4932, "MEAN_ANOMALY": 243.4155, "EPHEMERIS_TYPE": 0, "CLASSIFICATION_TYPE": "U", "NORAD_CAT_ID": 34350, "ELEMENT_SET_NO": 999, "REV_AT_EPOCH": 88287, "BSTAR": 0.00048199861, "MEAN_MOTION_DOT": 1.72e-05, "MEAN_MOTION_DDOT": 0}, "tle": {"line1": "1 34350U 97051ES  25346.31648282  .00001720  00000+0  48200-3 0  9997", "line2": "2 34350  86.3276   2.9909 0022790 136.4932 243.4155 14.45385544882876"}}, "geometry": {"type": "Point", "coordinates": [1.6347528171849057, -16.912604505695263]}}, {"type": "Feature", "properties": {"norad_id": 34366, "name": "IRIDIUM 33 DEB", "group": "iridium-33-debris", "lat": -44.8601760156104, "lon": 45.636693477569324, "alt_km": 735.096562889732, "timestamp": "2025-12-12T20:43:07.420238+00:00", "meta": {"OBJECT_NAME": "IRIDIUM 33 DEB", "OBJECT_ID": "1997-051FJ", "EPOCH": "2025-12-12T04:39:17.531424", "MEAN_MOTION": 14.54051979, "ECCENTRICITY": 0.00224311, "INCLINATION": 86.3694, "RA_OF_ASC_NODE": 49.5503, "ARG_OF_PERICENTER": 141.384, "MEAN_ANOMALY": 272.3047, "EPHEMERIS_TYPE": 0, "CLASSIFICATION_TYPE": "U", "NORAD_CAT_ID": 34366, "ELEMENT_SET_NO": 999, "REV_AT_EPOCH": 88174, "BSTAR": 0.0017102167, "MEAN_MOTION_DOT": 7.261e-05, "MEAN_MOTION_DDOT": 0}, "tle": {"line1": "1 34366U 97051FJ  25346.19395291  .00007261  00000+0  17102-2 0  9991", "line2": "2 34366  86.3694  49.5503 0022431 141.3840 272.3047 14.54051979881747"}}, "geometry": {"type": "Point", "coordinates": [45.636693477569324, -44.8601760156104]}}]}